      2.10          N: GNSS NAV DATA                        RINEX VERSION / TYPE
fic2rin                                 09/29/2019 00:19:28 PGM / RUN BY / DATE
                                                            END OF HEADER
19 19  9 28 13 59 44.0-2.610734663904e-04 5.229594535194e-12 0.000000000000e+00
    1.600000000000e+01 2.918750000000e+01 3.778014512326e-09 1.025350246776e+00
    1.564621925354e-06 9.360672906041e-03 1.516379415989e-05 5.153657903671e+03
    5.687840000000e+05-1.527369022369e-07 2.195197976864e-01-6.146728992462e-08
    9.825328216587e-01 1.007500000000e+02 1.508192958062e+00-7.756394513536e-09
    2.089372745047e-10 1.000000000000e+00 2.072000000000e+03 0.000000000000e+00
    2.400000000000e+00 0.000000000000e+00-1.536682248116e-08 1.600000000000e+01
    5.616000000000e+05 4.000000000000e+00
29 19  9 28 13 59 44.0 8.564256131649e-05-1.034550223267e-11 0.000000000000e+00
    1.100000000000e+01 2.403125000000e+01 3.728726745007e-09-1.447152958678e+00
    1.342967152596e-06 1.169118448161e-03 1.460872590542e-05 5.153694372177e+03
    5.687840000000e+05 3.725290298462e-09 1.848690571554e-01 1.117587089539e-08
    9.861178165195e-01 1.174687500000e+02 2.026362396527e+00-7.557814813323e-09
    2.078658013021e-10 1.000000000000e+00 2.072000000000e+03 0.000000000000e+00
    2.400000000000e+00 0.000000000000e+00-9.778887033463e-09 1.100000000000e+01
    5.616000000000e+05 4.000000000000e+00
 2 19  9 28 14  0  0.0-3.146841190755e-04-8.071765478235e-12 0.000000000000e+00
    3.900000000000e+01 1.040000000000e+02 4.970921344541e-09 2.719972854724e+00
    5.276873707771e-06 1.917319314089e-02 5.168840289116e-06 5.153541124344e+03
    5.688000000000e+05 1.844018697739e-07 1.100366449079e+00-2.924352884293e-07
    9.559893127236e-01 2.701875000000e+02-1.711895084216e+00-8.212127782371e-09
    4.589476884420e-10 1.000000000000e+00 2.072000000000e+03 0.000000000000e+00
    2.400000000000e+00 0.000000000000e+00-2.048909664154e-08 3.900000000000e+01
    5.616000000000e+05 4.000000000000e+00
 1 19  9 28 14  0  0.0-1.440234482288e-04-1.296029950026e-11 0.000000000000e+00
    5.100000000000e+01 8.734375000000e+01 4.665551481803e-09 2.443800938530e+00
    4.425644874573e-06 9.107677033171e-03 4.386529326439e-06 5.153639638901e+03
    5.688000000000e+05-4.842877388000e-08 1.171674655832e+00-1.881271600723e-07
    9.768564288713e-01 3.035312500000e+02 7.653239415341e-01-8.238557454701e-09
    5.296649198128e-10 1.000000000000e+00 2.072000000000e+03 0.000000000000e+00
    2.400000000000e+00 0.000000000000e+00 5.587935447693e-09 5.100000000000e+01
    5.616000000000e+05 4.000000000000e+00
 5 19  9 28 14  0  0.0-1.817476004362e-06-3.410605131648e-13 0.000000000000e+00
    8.000000000000e+01-9.553125000000e+01 5.194502086148e-09-9.659363964081e-01
   -4.947185516357e-06 5.917900241911e-03 4.662200808525e-06 5.153767408371e+03
    5.688000000000e+05 1.415610313416e-07 2.185474251512e+00 1.173466444016e-07
    9.505150279205e-01 2.835000000000e+02 7.914787560614e-01-8.662503685192e-09
   -6.239545616406e-10 1.000000000000e+00 2.072000000000e+03 0.000000000000e+00
    2.400000000000e+00 0.000000000000e+00-1.117587089539e-08 8.000000000000e+01
    5.616000000000e+05 4.000000000000e+00
 3 19  9 28 14  0  0.0-1.595821231604e-05-4.320099833421e-12 0.000000000000e+00
    4.000000000000e+01-9.881250000000e+01 4.846273295307e-09 1.317577435806e+00
   -5.127862095833e-06 2.560355933383e-03 6.079673767090e-06 5.153702157974e+03
    5.688000000000e+05-3.725290298462e-08 2.214025805690e+00 1.378357410431e-07
    9.636549376276e-01 2.628125000000e+02 7.543159774539e-01-8.459280934434e-09
   -6.460983411607e-10 1.000000000000e+00 2.072000000000e+03 0.000000000000e+00
    2.400000000000e+00 0.000000000000e+00 1.862645149231e-09 4.000000000000e+01
    5.616000000000e+05 4.000000000000e+00
15 19  9 28 14  0  0.0-2.837213687599e-04 2.728484105319e-12 0.000000000000e+00
    6.000000000000e+00-3.403125000000e+01 4.795914054785e-09-2.544103855383e+00
   -1.799315214157e-06 1.177812379319e-02 1.422688364983e-05 5.153582889557e+03
    5.688000000000e+05 8.009374141693e-08-3.120805613189e+00-1.080334186554e-07
    9.286133639025e-01 8.634375000000e+01 8.132069033659e-01-7.983903990219e-09
   -7.143154683922e-12 1.000000000000e+00 2.072000000000e+03 0.000000000000e+00
    2.400000000000e+00 0.000000000000e+00-1.071020960808e-08 6.000000000000e+00
    5.616000000000e+05 4.000000000000e+00
22 19  9 28 14  0  0.0-7.591778412461e-04-3.524291969370e-12 0.000000000000e+00
    1.900000000000e+01-9.596875000000e+01 5.652021143653e-09-2.566622578247e+00
   -4.922971129417e-06 6.900014588609e-03 4.483386874199e-06 5.153692922592e+03
    5.688000000000e+05-2.235174179077e-08 2.136413873230e+00 1.452863216400e-07
    9.282545744661e-01 2.717500000000e+02-1.280255405399e+00-8.739649755778e-09
   -5.264505002050e-10 1.000000000000e+00 2.072000000000e+03 0.000000000000e+00
    2.400000000000e+00 0.000000000000e+00-1.816079020500e-08 1.900000000000e+01
    5.616000000000e+05 4.000000000000e+00
16 19  9 28 14  0  0.0-7.829163223505e-05-3.524291969370e-12 0.000000000000e+00
    4.000000000000e+01-8.759375000000e+01 4.251248510136e-09-6.946245120477e-01
   -4.401430487633e-06 1.080822432414e-02 7.398426532745e-06 5.153639589310e+03
    5.688000000000e+05 1.359730958939e-07-8.407036672765e-01 1.620501279831e-07
    9.814766108975e-01 2.438125000000e+02 5.808851636958e-01-8.156411175836e-09
   -5.353794435599e-10 1.000000000000e+00 2.072000000000e+03 0.000000000000e+00
    2.400000000000e+00 0.000000000000e+00-1.071020960808e-08 4.000000000000e+01
    5.616000000000e+05 4.000000000000e+00
10 19  9 28 14  0  0.0-7.223943248391e-05-1.568878360558e-11 0.000000000000e+00
    3.400000000000e+01-9.275000000000e+01 4.840558771560e-09 4.624849832131e-01
   -4.855915904045e-06 4.857050953433e-03 5.282461643219e-06 5.153665945053e+03
    5.688000000000e+05-1.676380634308e-08 2.210854676206e+00-2.980232238770e-08
    9.636473699524e-01 2.761250000000e+02-2.737279014681e+00-8.524997957526e-09
   -6.689564361493e-10 1.000000000000e+00 2.072000000000e+03 0.000000000000e+00
    2.400000000000e+00 0.000000000000e+00 1.862645149231e-09 3.400000000000e+01
    5.616000000000e+05 4.000000000000e+00
 8 19  9 28 14  0  0.0-8.059665560722e-06-1.364242052659e-12 0.000000000000e+00
    2.100000000000e+01 2.746875000000e+01 4.007666935414e-09-1.462668433760e+00
    1.128762960434e-06 4.476566566154e-03 1.468136906624e-05 5.153566028595e+03
    5.688000000000e+05-3.911554813385e-08 1.043341675597e-01-6.332993507385e-08
    9.706079751352e-01 1.031875000000e+02-2.321785887473e-01-7.732107787611e-09
    1.500062483624e-10 1.000000000000e+00 2.072000000000e+03 0.000000000000e+00
    2.400000000000e+00 0.000000000000e+00 5.122274160385e-09 2.100000000000e+01
    5.616000000000e+05 4.000000000000e+00
 6 19  9 28 14  0  0.0-7.241778075695e-05-1.273292582482e-11 0.000000000000e+00
    1.900000000000e+01 8.681250000000e+01 4.728411243022e-09 2.800929358773e+00
    4.652887582779e-06 1.394774764776e-03 4.937872290611e-06 5.153659242630e+03
    5.688000000000e+05 1.005828380585e-07 1.163401121172e+00-2.235174179077e-08
    9.764828186118e-01 2.913437500000e+02-1.165668470108e+00-8.380706232911e-09
    5.218074496605e-10 1.000000000000e+00 2.072000000000e+03 0.000000000000e+00
    2.400000000000e+00 0.000000000000e+00 4.190951585770e-09 1.900000000000e+01
    5.616000000000e+05 4.000000000000e+00
14 19  9 28 14  0  0.0-5.895877256989e-05 2.046363078989e-12 0.000000000000e+00
    2.200000000000e+01 3.178125000000e+01 4.116600044344e-09-1.926200570808e+00
    1.523643732071e-06 1.075794349890e-02 1.416727900505e-05 5.153756433487e+03
    5.688000000000e+05 2.607703208923e-07-2.943838491947e+00-5.587935447693e-08
    9.610242642095e-01 1.087500000000e+02-1.930540121259e+00-7.639961092188e-09
    7.964617472573e-11 1.000000000000e+00 2.072000000000e+03 0.000000000000e+00
    2.400000000000e+00 0.000000000000e+00-9.778887033463e-09 2.200000000000e+01
    5.616000000000e+05 4.000000000000e+00
18 19  9 28 14  0  0.0 8.911313489079e-05 2.842170943040e-12 0.000000000000e+00
    1.300000000000e+01 9.587500000000e+01 5.029495212949e-09 2.171371961146e+00
    4.686415195465e-06 1.568736636546e-02 4.302710294724e-06 5.153668296814e+03
    5.688000000000e+05 2.235174179077e-07 1.113864132958e+00-2.086162567139e-07
    9.554486445340e-01 2.898125000000e+02 1.437133941849e+00-8.324275310908e-09
    4.964492505326e-10 1.000000000000e+00 2.072000000000e+03 0.000000000000e+00
    2.400000000000e+00 0.000000000000e+00-5.587935447693e-09 1.300000000000e+01
    5.616000000000e+05 4.000000000000e+00
17 19  9 28 14  0  0.0 1.341467723250e-04 7.162270776462e-12 0.000000000000e+00
    1.900000000000e+01 4.071875000000e+01 3.724083694463e-09-1.733097495336e+00
    2.278015017509e-06 1.314473967068e-02 1.537799835205e-05 5.153581331253e+03
    5.688000000000e+05 2.030283212662e-07 1.735391852665e-01 2.440065145493e-07
    9.845904027709e-01 9.131250000000e+01-1.702441075607e+00-7.466739591103e-09
    1.928651764659e-10 1.000000000000e+00 2.072000000000e+03 0.000000000000e+00
    2.400000000000e+00 0.000000000000e+00-1.117587089539e-08 1.900000000000e+01
    5.616000000000e+05 4.000000000000e+00
 9 19  9 28 14  0  0.0-4.275701940060e-05-9.777068044059e-12 0.000000000000e+00
    5.600000000000e+01 2.125000000000e+00 4.338752155014e-09-1.178192482526e+00
   -3.725290298462e-09 1.447499380447e-03 1.505762338638e-05 5.153601413727e+03
    5.688000000000e+05-7.450580596924e-09-3.037652422073e+00 3.539025783539e-08
    9.531094824128e-01 8.278125000000e+01 1.667279027652e+00-7.949974005471e-09
    5.000208278745e-12 1.000000000000e+00 2.072000000000e+03 0.000000000000e+00
    2.400000000000e+00 0.000000000000e+00 1.396983861923e-09 5.600000000000e+01
    5.616000000000e+05 4.000000000000e+00
